{
  "type": "FeatureCollection",
  "features": [
    {
      "type": "Feature",
      "properties": {
        "norad_id": 27954,
        "name": "GALAXY 13 (HORIZONS-1)",
        "group": "intelsat",
        "lat": 0.26509962890981836,
        "lon": 101.93529988121354,
        "alt_km": 35793.618563768505,
        "timestamp": "2025-12-09T11:33:54.467965+00:00",
        "meta_object_name": "GALAXY 13 (HORIZONS-1)",
        "meta_object_id": "2003-044A",
        "meta_epoch": "2025-12-09T03:14:38.559264",
        "meta_mean_motion": 1.00269917,
        "meta_eccentricity": 0.000202,
        "meta_inclination": 0.9261,
        "meta_ra_of_asc_node": 86.5171,
        "meta_arg_of_pericenter": 161.2931,
        "meta_mean_anomaly": 88.9868,
        "meta_ephemeris_type": 0,
        "meta_classification_type": "U",
        "meta_norad_cat_id": 27954,
        "meta_element_set_no": 999,
        "meta_rev_at_epoch": 4466,
        "meta_bstar": 0,
        "meta_mean_motion_dot": 1.35e-06,
        "meta_mean_motion_ddot": 0,
        "tle_line1": "1 27954U 03044A   25343.13516851  .00000135  00000+0  00000+0 0  9992",
        "tle_line2": "2 27954   0.9261  86.5171 0002020 161.2931  88.9868  1.00269917 44664"
      },
      "geometry": {
        "type": "Point",
        "coordinates": [
          101.93529988121354,
          0.26509962890981836
        ]
      }
    },
    {
      "type": "Feature",
      "properties": {
        "norad_id": 28358,
        "name": "INTELSAT 10-02",
        "group": "intelsat",
        "lat": -0.01717663066607432,
        "lon": -109.03896510643338,
        "alt_km": 35782.14739438349,
        "timestamp": "2025-12-09T11:33:54.467992+00:00",
        "meta_object_name": "INTELSAT 10-02",
        "meta_object_id": "2004-022A",
        "meta_epoch": "2025-12-09T01:35:02.641056",
        "meta_mean_motion": 1.00271862,
        "meta_eccentricity": 0.0001305,
        "meta_inclination": 0.0316,
        "meta_ra_of_asc_node": 71.7414,
        "meta_arg_of_pericenter": 224.3866,
        "meta_mean_anomaly": 164.7209,
        "meta_ephemeris_type": 0,
        "meta_classification_type": "U",
        "meta_norad_cat_id": 28358,
        "meta_element_set_no": 999,
        "meta_rev_at_epoch": 7865,
        "meta_bstar": 0,
        "meta_mean_motion_dot": -9e-08,
        "meta_mean_motion_ddot": 0,
        "tle_line1": "1 28358U 04022A   25343.06600279 -.00000009  00000+0  00000+0 0  9999",
        "tle_line2": "2 28358   0.0316  71.7414 0001305 224.3866 164.7209  1.00271862 78654"
      },
      "geometry": {
        "type": "Point",
        "coordinates": [
          -109.03896510643338,
          -0.01717663066607432
        ]
      }
    },
    {
      "type": "Feature",
      "properties": {
        "norad_id": 28626,
        "name": "XM-3 (RHYTHM)",
        "group": "intelsat",
        "lat": -0.1284797642673619,
        "lon": 21.74437565233716,
        "alt_km": 36155.09262800228,
        "timestamp": "2025-12-09T11:33:54.468013+00:00",
        "meta_object_name": "XM-3 (RHYTHM)",
        "meta_object_id": "2005-008A",
        "meta_epoch": "2025-12-09T03:55:12.061056",
        "meta_mean_motion": 0.98953843,
        "meta_eccentricity": 0.0001359,
        "meta_inclination": 0.1655,
        "meta_ra_of_asc_node": 81.1811,
        "meta_arg_of_pericenter": 263.9518,
        "meta_mean_anomaly": 283.1263,
        "meta_ephemeris_type": 0,
        "meta_classification_type": "U",
        "meta_norad_cat_id": 28626,
        "meta_element_set_no": 999,
        "meta_rev_at_epoch": 4071,
        "meta_bstar": 0,
        "meta_mean_motion_dot": -2.45e-06,
        "meta_mean_motion_ddot": 0,
        "tle_line1": "1 28626U 05008A   25343.16333404 -.00000245  00000+0  00000+0 0  9998",
        "tle_line2": "2 28626   0.1655  81.1811 0001359 263.9518 283.1263  0.98953843 40711"
      },
      "geometry": {
        "type": "Point",
        "coordinates": [
          21.74437565233716,
          -0.1284797642673619
        ]
      }
    },
    {
      "type": "Feature",
      "properties": {
        "norad_id": 28659,
        "name": "DIRECTV 8",
        "group": "intelsat",
        "lat": 0.024830790566915638,
        "lon": 132.8721483665446,
        "alt_km": 35794.589337783495,
        "timestamp": "2025-12-09T11:33:54.468025+00:00",
        "meta_object_name": "DIRECTV 8",
        "meta_object_id": "2005-019A",
        "meta_epoch": "2025-12-09T04:15:38.584224",
        "meta_mean_motion": 1.00271825,
        "meta_eccentricity": 0.0003194,
        "meta_inclination": 0.0174,
        "meta_ra_of_asc_node": 2.2628,
        "meta_arg_of_pericenter": 259.7582,
        "meta_mean_anomaly": 121.0168,
        "meta_ephemeris_type": 0,
        "meta_classification_type": "U",
        "meta_norad_cat_id": 28659,
        "meta_element_set_no": 999,
        "meta_rev_at_epoch": 7516,
        "meta_bstar": 0,
        "meta_mean_motion_dot": 3e-08,
        "meta_mean_motion_ddot": 0,
        "tle_line1": "1 28659U 05019A   25343.17752991  .00000003  00000+0  00000+0 0  9994",
        "tle_line2": "2 28659   0.0174   2.2628 0003194 259.7582 121.0168  1.00271825 75163"
      },
      "geometry": {
        "type": "Point",
        "coordinates": [
          132.8721483665446,
          0.024830790566915638
        ]
      }
    },
    {
      "type": "Feature",
      "properties": {
        "norad_id": 28702,
        "name": "GALAXY 28 (G-28)",
        "group": "intelsat",
        "lat": 2.7842080608803563,
        "lon": 163.22528300583875,
        "alt_km": 35787.313143929285,
        "timestamp": "2025-12-09T11:33:54.468038+00:00",
        "meta_object_name": "GALAXY 28 (G-28)",
        "meta_object_id": "2005-022A",
        "meta_epoch": "2025-12-09T04:04:38.821728",
        "meta_mean_motion": 1.00271187,
        "meta_eccentricity": 0.0002677,
        "meta_inclination": 2.8095,
        "meta_ra_of_asc_node": 81.3234,
        "meta_arg_of_pericenter": 179.0448,
        "meta_mean_anomaly": 150.2747,
        "meta_ephemeris_type": 0,
        "meta_classification_type": "U",
        "meta_norad_cat_id": 28702,
        "meta_element_set_no": 999,
        "meta_rev_at_epoch": 5006,
        "meta_bstar": 0,
        "meta_mean_motion_dot": -1.86e-06,
        "meta_mean_motion_ddot": 0,
        "tle_line1": "1 28702U 05022A   25343.16989377 -.00000186  00000+0  00000+0 0  9999",
        "tle_line2": "2 28702   2.8095  81.3234 0002677 179.0448 150.2747  1.00271187 50065"
      },
      "geometry": {
        "type": "Point",
        "coordinates": [
          163.22528300583875,
          2.7842080608803563
        ]
      }
    },
    {
      "type": "Feature",
      "properties": {
        "norad_id": 29236,
        "name": "GALAXY 16 (G-16)",
        "group": "intelsat",
        "lat": 0.0014174754974864594,
        "lon": 152.90144886426134,
        "alt_km": 35787.82898184222,
        "timestamp": "2025-12-09T11:33:54.468050+00:00",
        "meta_object_name": "GALAXY 16 (G-16)",
        "meta_object_id": "2006-023A",
        "meta_epoch": "2025-12-09T04:26:37.415328",
        "meta_mean_motion": 1.002722,
        "meta_eccentricity": 0.0002843,
        "meta_inclination": 0.0135,
        "meta_ra_of_asc_node": 100.9265,
        "meta_arg_of_pericenter": 150.7765,
        "meta_mean_anomaly": 154.1202,
        "meta_ephemeris_type": 0,
        "meta_classification_type": "U",
        "meta_norad_cat_id": 29236,
        "meta_element_set_no": 999,
        "meta_rev_at_epoch": 7106,
        "meta_bstar": 0,
        "meta_mean_motion_dot": -1.25e-06,
        "meta_mean_motion_ddot": 0,
        "tle_line1": "1 29236U 06023A   25343.18515527 -.00000125  00000+0  00000+0 0  9991",
        "tle_line2": "2 29236   0.0135 100.9265 0002843 150.7765 154.1202  1.00272200 71067"
      },
      "geometry": {
        "type": "Point",
        "coordinates": [
          152.90144886426134,
          0.0014174754974864594
        ]
      }
    },
    {
      "type": "Feature",
      "properties": {
        "norad_id": 29494,
        "name": "DIRECTV 9S",
        "group": "intelsat",
        "lat": 1.7898647953884708,
        "lon": 150.68671162322076,
        "alt_km": 35790.835523350055,
        "timestamp": "2025-12-09T11:33:54.468062+00:00",
        "meta_object_name": "DIRECTV 9S",
        "meta_object_id": "2006-043A",
        "meta_epoch": "2025-12-09T04:12:38.528352",
        "meta_mean_motion": 1.0027068,
        "meta_eccentricity": 0.0003173,
        "meta_inclination": 1.9311,
        "meta_ra_of_asc_node": 83.2426,
        "meta_arg_of_pericenter": 177.8119,
        "meta_mean_anomaly": 139.0616,
        "meta_ephemeris_type": 0,
        "meta_classification_type": "U",
        "meta_norad_cat_id": 29494,
        "meta_element_set_no": 999,
        "meta_rev_at_epoch": 4947,
        "meta_bstar": 0,
        "meta_mean_motion_dot": -1.11e-06,
        "meta_mean_motion_ddot": 0,
        "tle_line1": "1 29494U 06043A   25343.17544593 -.00000111  00000+0  00000+0 0  9998",
        "tle_line2": "2 29494   1.9311  83.2426 0003173 177.8119 139.0616  1.00270680 49472"
      },
      "geometry": {
        "type": "Point",
        "coordinates": [
          150.68671162322076,
          1.7898647953884708
        ]
      }
    }
  ]
}